[{"OBJECT_NAME":"STARLINK-2548","OBJECT_ID":"2021-036K","EPOCH":"2023-11-17T02:55:39.144576","MEAN_MOTION":15.06390585,"ECCENTRICITY":0.0001821,"INCLINATION":53.0553,"RA_OF_ASC_NODE":268.5308,"ARG_OF_PERICENTER":93.695,"MEAN_ANOMALY":266.4247,"EPHEMERIS_TYPE":0,"CLASSIFICATION_TYPE":"U","NORAD_CAT_ID":48285,"ELEMENT_SET_NO":999,"REV_AT_EPOCH":14174,"BSTAR":9.2325e-5,"MEAN_MOTION_DOT":1.093e-5,"MEAN_MOTION_DDOT":0},{"OBJECT_NAME":"STARLINK-2547","OBJECT_ID":"2021-036L","EPOCH":"2023-11-17T03:54:00.320544","MEAN_MOTION":15.06386117,"ECCENTRICITY":0.0001691,"INCLINATION":53.0547,"RA_OF_ASC_NODE":268.1208,"ARG_OF_PERICENTER":94.5955,"MEAN_ANOMALY":265.5227,"EPHEMERIS_TYPE":0,"CLASSIFICATION_TYPE":"U","NORAD_CAT_ID":48286,"ELEMENT_SET_NO":999,"REV_AT_EPOCH":14175,"BSTAR":4.4327e-5,"MEAN_MOTION_DOT":3.79e-6,"MEAN_MOTION_DDOT":0},{"OBJECT_NAME":"STARLINK-2566","OBJECT_ID":"2021-036M","EPOCH":"2023-11-17T02:46:24.368448","MEAN_MOTION":15.06390809,"ECCENTRICITY":0.0001524,"INCLINATION":53.0555,"RA_OF_ASC_NODE":268.5674,"ARG_OF_PERICENTER":91.1804,"MEAN_ANOMALY":268.936,"EPHEMERIS_TYPE":0,"CLASSIFICATION_TYPE":"U","NORAD_CAT_ID":48287,"ELEMENT_SET_NO":999,"REV_AT_EPOCH":14174,"BSTAR":0.00018751,"MEAN_MOTION_DOT":2.512e-5,"MEAN_MOTION_DDOT":0},{"OBJECT_NAME":"STARLINK-2562","OBJECT_ID":"2021-036N","EPOCH":"2023-11-16T06:09:41.659488","MEAN_MOTION":15.06379227,"ECCENTRICITY":0.00015,"INCLINATION":53.0551,"RA_OF_ASC_NODE":272.5037,"ARG_OF_PERICENTER":96.243,"MEAN_ANOMALY":263.873,"EPHEMERIS_TYPE":0,"CLASSIFICATION_TYPE":"U","NORAD_CAT_ID":48288,"ELEMENT_SET_NO":999,"REV_AT_EPOCH":14103,"BSTAR":0.00014325,"MEAN_MOTION_DOT":1.852e-5,"MEAN_MOTION_DDOT":0},{"OBJECT_NAME":"STARLINK-2545","OBJECT_ID":"2021-036P","EPOCH":"2023-11-17T02:35:46.867776","MEAN_MOTION":15.06387584,"ECCENTRICITY":0.0001223,"INCLINATION":53.0529,"RA_OF_ASC_NODE":268.6029,"ARG_OF_PERICENTER":98.0916,"MEAN_ANOMALY":262.0212,"EPHEMERIS_TYPE":0,"CLASSIFICATION_TYPE":"U","NORAD_CAT_ID":48289,"ELEMENT_SET_NO":999,"REV_AT_EPOCH":14174,"BSTAR":8.2453e-5,"MEAN_MOTION_DOT":9.47e-6,"MEAN_MOTION_DDOT":0},{"OBJECT_NAME":"STARLINK-2540","OBJECT_ID":"2021-036Q","EPOCH":"2023-11-17T04:06:01.554912","MEAN_MOTION":15.06388873,"ECCENTRICITY":0.0002104,"INCLINATION":53.0568,"RA_OF_ASC_NODE":268.3234,"ARG_OF_PERICENTER":64.1099,"MEAN_ANOMALY":296.0107,"EPHEMERIS_TYPE":0,"CLASSIFICATION_TYPE":"U","NORAD_CAT_ID":48290,"ELEMENT_SET_NO":999,"REV_AT_EPOCH":14175,"BSTAR":0.00013983,"MEAN_MOTION_DOT":1.801e-5,"MEAN_MOTION_DDOT":0},{"OBJECT_NAME":"STARLINK-2555","OBJECT_ID":"2021-036R","EPOCH":"2023-11-17T04:00:42.681888","MEAN_MOTION":15.06384139,"ECCENTRICITY":0.0001811,"INCLINATION":53.0559,"RA_OF_ASC_NODE":268.3426,"ARG_OF_PERICENTER":96.0561,"MEAN_ANOMALY":264.0635,"EPHEMERIS_TYPE":0,"CLASSIFICATION_TYPE":"U","NORAD_CAT_ID":48291,"ELEMENT_SET_NO":999,"REV_AT_EPOCH":14175,"BSTAR":1.3953e-5,"MEAN_MOTION_DOT":-7.4e-7,"MEAN_MOTION_DDOT":0},{"OBJECT_NAME":"STARLINK-2542","OBJECT_ID":"2021-036S","EPOCH":"2023-11-17T02:41:06.936576","MEAN_MOTION":15.06405345,"ECCENTRICITY":0.0001476,"INCLINATION":53.0541,"RA_OF_ASC_NODE":268.7526,"ARG_OF_PERICENTER":88.9237,"MEAN_ANOMALY":271.1921,"EPHEMERIS_TYPE":0,"CLASSIFICATION_TYPE":"U","NORAD_CAT_ID":48292,"ELEMENT_SET_NO":999,"REV_AT_EPOCH":14174,"BSTAR":0.00027242,"MEAN_MOTION_DOT":3.779e-5,"MEAN_MOTION_DDOT":0},{"OBJECT_NAME":"STARLINK-2550","OBJECT_ID":"2021-036T","EPOCH":"2023-11-17T03:50:05.526816","MEAN_MOTION":15.06388186,"ECCENTRICITY":0.0001632,"INCLINATION":53.0547,"RA_OF_ASC_NODE":268.3735,"ARG_OF_PERICENTER":101.8823,"MEAN_ANOMALY":258.2349,"EPHEMERIS_TYPE":0,"CLASSIFICATION_TYPE":"U","NORAD_CAT_ID":48293,"ELEMENT_SET_NO":999,"REV_AT_EPOCH":14175,"BSTAR":-5.8894e-5,"MEAN_MOTION_DOT":-1.158e-5,"MEAN_MOTION_DDOT":0},{"OBJECT_NAME":"STARLINK-2533","OBJECT_ID":"2021-036U","EPOCH":"2023-11-17T03:44:46.944960","MEAN_MOTION":15.06386931,"ECCENTRICITY":0.0001425,"INCLINATION":53.0535,"RA_OF_ASC_NODE":268.3887,"ARG_OF_PERICENTER":92.4421,"MEAN_ANOMALY":267.6731,"EPHEMERIS_TYPE":0,"CLASSIFICATION_TYPE":"U","NORAD_CAT_ID":48294,"ELEMENT_SET_NO":999,"REV_AT_EPOCH":14175,"BSTAR":-5.1299e-5,"MEAN_MOTION_DOT":-1.045e-5,"MEAN_MOTION_DDOT":0},{"OBJECT_NAME":"STARLINK-2535","OBJECT_ID":"2021-036V","EPOCH":"2023-11-17T00:28:23.769120","MEAN_MOTION":15.06397724,"ECCENTRICITY":0.0001931,"INCLINATION":53.0551,"RA_OF_ASC_NODE":268.994,"ARG_OF_PERICENTER":116.9423,"MEAN_ANOMALY":243.1764,"EPHEMERIS_TYPE":0,"CLASSIFICATION_TYPE":"U","NORAD_CAT_ID":48295,"ELEMENT_SET_NO":999,"REV_AT_EPOCH":14173,"BSTAR":5.4046e-5,"MEAN_MOTION_DOT":5.23e-6,"MEAN_MOTION_DDOT":0},{"OBJECT_NAME":"STARLINK-2546","OBJECT_ID":"2021-036W","EPOCH":"2023-11-17T03:34:10.165728","MEAN_MOTION":15.06391501,"ECCENTRICITY":0.0001523,"INCLINATION":53.0542,"RA_OF_ASC_NODE":268.4232,"ARG_OF_PERICENTER":86.8475,"MEAN_ANOMALY":273.2688,"EPHEMERIS_TYPE":0,"CLASSIFICATION_TYPE":"U","NORAD_CAT_ID":48296,"ELEMENT_SET_NO":999,"REV_AT_EPOCH":14175,"BSTAR":-2.8423e-5,"MEAN_MOTION_DOT":-7.05e-6,"MEAN_MOTION_DDOT":0},{"OBJECT_NAME":"STARLINK-2544","OBJECT_ID":"2021-036X","EPOCH":"2023-11-17T03:28:51.665088","MEAN_MOTION":15.06395818,"ECCENTRICITY":0.000153,"INCLINATION":53.0551,"RA_OF_ASC_NODE":268.439,"ARG_OF_PERICENTER":85.3155,"MEAN_ANOMALY":274.8008,"EPHEMERIS_TYPE":0,"CLASSIFICATION_TYPE":"U","NORAD_CAT_ID":48297,"ELEMENT_SET_NO":999,"REV_AT_EPOCH":14175,"BSTAR":7.0634e-5,"MEAN_MOTION_DOT":7.71e-6,"MEAN_MOTION_DDOT":0},{"OBJECT_NAME":"STARLINK-2559","OBJECT_ID":"2021-036Y","EPOCH":"2023-11-17T03:23:33.662976","MEAN_MOTION":15.06392139,"ECCENTRICITY":0.0001445,"INCLINATION":53.055,"RA_OF_ASC_NODE":268.4551,"ARG_OF_PERICENTER":89.4106,"MEAN_ANOMALY":270.7048,"EPHEMERIS_TYPE":0,"CLASSIFICATION_TYPE":"U","NORAD_CAT_ID":48298,"ELEMENT_SET_NO":999,"REV_AT_EPOCH":14175,"BSTAR":0.00015091,"MEAN_MOTION_DOT":1.967e-5,"MEAN_MOTION_DDOT":0},{"OBJECT_NAME":"STARLINK-2557","OBJECT_ID":"2021-036Z","EPOCH":"2023-11-17T00:07:11.167968","MEAN_MOTION":15.06400713,"ECCENTRICITY":0.0001751,"INCLINATION":53.0554,"RA_OF_ASC_NODE":269.0697,"ARG_OF_PERICENTER":72.1126,"MEAN_ANOMALY":288.0054,"EPHEMERIS_TYPE":0,"CLASSIFICATION_TYPE":"U","NORAD_CAT_ID":48299,"ELEMENT_SET_NO":999,"REV_AT_EPOCH":14173,"BSTAR":0.00064248,"MEAN_MOTION_DOT":9.301e-5,"MEAN_MOTION_DDOT":0},{"OBJECT_NAME":"STARLINK-2538","OBJECT_ID":"2021-036AA","EPOCH":"2023-11-16T06:24:16.533792","MEAN_MOTION":15.0640328,"ECCENTRICITY":0.0001482,"INCLINATION":53.055,"RA_OF_ASC_NODE":282.3793,"ARG_OF_PERICENTER":88.0343,"MEAN_ANOMALY":272.0816,"EPHEMERIS_TYPE":0,"CLASSIFICATION_TYPE":"U","NORAD_CAT_ID":48300,"ELEMENT_SET_NO":999,"REV_AT_EPOCH":14090,"BSTAR":0.00052189,"MEAN_MOTION_DOT":7.501e-5,"MEAN_MOTION_DDOT":0},{"OBJECT_NAME":"STARLINK-2537","OBJECT_ID":"2021-036AB","EPOCH":"2023-11-17T03:00:59.112288","MEAN_MOTION":15.06396393,"ECCENTRICITY":0.0001938,"INCLINATION":53.0554,"RA_OF_ASC_NODE":278.515,"ARG_OF_PERICENTER":123.796,"MEAN_ANOMALY":236.3214,"EPHEMERIS_TYPE":0,"CLASSIFICATION_TYPE":"U","NORAD_CAT_ID":48301,"ELEMENT_SET_NO":999,"REV_AT_EPOCH":14160,"BSTAR":4.2276e-5,"MEAN_MOTION_DOT":3.48e-6,"MEAN_MOTION_DDOT":0},{"OBJECT_NAME":"STARLINK-2556","OBJECT_ID":"2021-036AC","EPOCH":"2023-11-17T02:55:40.760256","MEAN_MOTION":15.06393129,"ECCENTRICITY":0.0001345,"INCLINATION":53.0538,"RA_OF_ASC_NODE":278.5445,"ARG_OF_PERICENTER":99.216,"MEAN_ANOMALY":260.8981,"EPHEMERIS_TYPE":0,"CLASSIFICATION_TYPE":"U","NORAD_CAT_ID":48302,"ELEMENT_SET_NO":999,"REV_AT_EPOCH":14160,"BSTAR":-5.3783e-5,"MEAN_MOTION_DOT":-1.082e-5,"MEAN_MOTION_DDOT":0},{"OBJECT_NAME":"STARLINK-2530","OBJECT_ID":"2021-036AD","EPOCH":"2023-11-17T04:24:33.361344","MEAN_MOTION":15.06389689,"ECCENTRICITY":0.0001527,"INCLINATION":53.0548,"RA_OF_ASC_NODE":278.2559,"ARG_OF_PERICENTER":95.948,"MEAN_ANOMALY":264.1683,"EPHEMERIS_TYPE":0,"CLASSIFICATION_TYPE":"U","NORAD_CAT_ID":48303,"ELEMENT_SET_NO":999,"REV_AT_EPOCH":14162,"BSTAR":-6.8997e-5,"MEAN_MOTION_DOT":-1.309e-5,"MEAN_MOTION_DDOT":0},{"OBJECT_NAME":"STARLINK-2524","OBJECT_ID":"2021-036AE","EPOCH":"2023-11-17T04:20:36.647808","MEAN_MOTION":15.06399058,"ECCENTRICITY":0.000176,"INCLINATION":53.0548,"RA_OF_ASC_NODE":278.2778,"ARG_OF_PERICENTER":93.3281,"MEAN_ANOMALY":266.7909,"EPHEMERIS_TYPE":0,"CLASSIFICATION_TYPE":"U","NORAD_CAT_ID":48304,"ELEMENT_SET_NO":999,"REV_AT_EPOCH":14162,"BSTAR":0.00020791,"MEAN_MOTION_DOT":2.816e-5,"MEAN_MOTION_DDOT":0},{"OBJECT_NAME":"STARLINK-2519","OBJECT_ID":"2021-036AF","EPOCH":"2023-11-17T04:13:56.681472","MEAN_MOTION":15.06394228,"ECCENTRICITY":0.0001398,"INCLINATION":53.0549,"RA_OF_ASC_NODE":278.2822,"ARG_OF_PERICENTER":88.5821,"MEAN_ANOMALY":271.5328,"EPHEMERIS_TYPE":0,"CLASSIFICATION_TYPE":"U","NORAD_CAT_ID":48305,"ELEMENT_SET_NO":999,"REV_AT_EPOCH":14162,"BSTAR":0.00015295,"MEAN_MOTION_DOT":1.997e-5,"MEAN_MOTION_DDOT":0},{"OBJECT_NAME":"STARLINK-2523","OBJECT_ID":"2021-036AG","EPOCH":"2023-11-17T04:09:59.924736","MEAN_MOTION":15.06393903,"ECCENTRICITY":0.0001632,"INCLINATION":53.0556,"RA_OF_ASC_NODE":278.3111,"ARG_OF_PERICENTER":94.1302,"MEAN_ANOMALY":265.9874,"EPHEMERIS_TYPE":0,"CLASSIFICATION_TYPE":"U","NORAD_CAT_ID":48306,"ELEMENT_SET_NO":999,"REV_AT_EPOCH":14162,"BSTAR":3.5725e-5,"MEAN_MOTION_DOT":2.51e-6,"MEAN_MOTION_DDOT":0},{"OBJECT_NAME":"STARLINK-2528","OBJECT_ID":"2021-036AH","EPOCH":"2023-11-17T04:04:41.716128","MEAN_MOTION":15.06389086,"ECCENTRICITY":0.0001376,"INCLINATION":53.0549,"RA_OF_ASC_NODE":278.3255,"ARG_OF_PERICENTER":91.3541,"MEAN_ANOMALY":268.7606,"EPHEMERIS_TYPE":0,"CLASSIFICATION_TYPE":"U","NORAD_CAT_ID":48307,"ELEMENT_SET_NO":999,"REV_AT_EPOCH":14162,"BSTAR":9.1829e-5,"MEAN_MOTION_DOT":1.086e-5,"MEAN_MOTION_DDOT":0}]
